CELESTIS-02             
1 25160U 98007D   19210.20333618 -.00000112  00000-0  74743-5 0  9992
2 25160 107.9586 305.5912 0061187 116.4497 299.7821 14.21523911113262
CELESTIS-03             
1 26034U 99070C   19210.51416614  .00000547  00000-0  38978-4 0  9996
2 26034  98.2447 114.2104 0014215  88.5858 271.6997 15.09226130 61860
LACMA ENOCH             
1 43777U 18099V   19210.14688944  .00003635  00000-0  33559-3 0  9997
2 43777  97.7445 281.3753 0016665 183.1539 176.9579 14.95149809 35450
